{
  "norad_id": 57643,
  "name": "STARLINK-30280",
  "history": [
    {
      "epoch": "2026-03-28T10:05:16.785888Z",
      "apogee_km": 483.84076061614724,
      "perigee_km": 482.20190433685093,
      "latitude_deg": -4.718019992500064e-06,
      "longitude_deg": 9.37681875229748,
      "height_km": 482.74542413517497,
      "semi_major_axis_km": 6861.158332476499,
      "eccentricity": 0.00011943,
      "inclination_deg": 43.0033,
      "raan_deg": 346.5378,
      "arg_perigee_deg": 273.6951,
      "mean_anomaly_deg": 86.3764,
      "mean_motion_rev_day": 15.27589272
    },
    {
      "epoch": "2026-03-29T01:46:51.410496Z",
      "apogee_km": 483.9530808598347,
      "perigee_km": 482.20484303273133,
      "latitude_deg": 1.877479299953293e-05,
      "longitude_deg": 129.6462878069786,
      "height_km": 482.8834655042376,
      "semi_major_axis_km": 6861.215961946283,
      "eccentricity": 0.0001274,
      "inclination_deg": 43.0029,
      "raan_deg": 342.846,
      "arg_perigee_deg": 268.1913,
      "mean_anomaly_deg": 91.8793,
      "mean_motion_rev_day": 15.27570026
    },
    {
      "epoch": "2026-03-30T01:19:12.584928Z",
      "apogee_km": 483.8866704297625,
      "perigee_km": 482.27442153080756,
      "latitude_deg": -2.8027025677342445e-05,
      "longitude_deg": 130.05369041945974,
      "height_km": 483.00846820141095,
      "semi_major_axis_km": 6861.217545980285,
      "eccentricity": 0.00011749,
      "inclination_deg": 43.0019,
      "raan_deg": 337.3084,
      "arg_perigee_deg": 259.1869,
      "mean_anomaly_deg": 100.885,
      "mean_motion_rev_day": 15.27569497
    },
    {
      "epoch": "2026-03-30T09:09:58.809888Z",
      "apogee_km": 483.8767333257292,
      "perigee_km": 482.21028980308074,
      "latitude_deg": 5.694019076490435e-05,
      "longitude_deg": 10.19114649717963,
      "height_km": 482.7391377975037,
      "semi_major_axis_km": 6861.180511564405,
      "eccentricity": 0.00012144,
      "inclination_deg": 43.0052,
      "raan_deg": 335.4606,
      "arg_perigee_deg": 275.6132,
      "mean_anomaly_deg": 84.4582,
      "mean_motion_rev_day": 15.27581865
    },
    {
      "epoch": "2026-03-30T23:17:24.429696Z",
      "apogee_km": 483.89010092358785,
      "perigee_km": 482.2955511120217,
      "latitude_deg": 2.218571447348828e-05,
      "longitude_deg": 154.43301775375662,
      "height_km": 482.97518754013464,
      "semi_major_axis_km": 6861.229826017805,
      "eccentricity": 0.0001162,
      "inclination_deg": 43.0031,
      "raan_deg": 332.1393,
      "arg_perigee_deg": 262.3931,
      "mean_anomaly_deg": 97.6789,
      "mean_motion_rev_day": 15.27565396
    },
    {
      "epoch": "2026-03-31T00:51:33.748992Z",
      "apogee_km": 484.0287197440084,
      "perigee_km": 482.1498415393171,
      "latitude_deg": 1.4788169902563072e-05,
      "longitude_deg": 130.45893252283267,
      "height_km": 482.89028294767303,
      "semi_major_axis_km": 6861.226280641662,
      "eccentricity": 0.00013692,
      "inclination_deg": 43.0023,
      "raan_deg": 331.7685,
      "arg_perigee_deg": 268.5316,
      "mean_anomaly_deg": 91.5379,
      "mean_motion_rev_day": 15.2756658
    },
    {
      "epoch": "2026-04-01T00:23:54.346272Z",
      "apogee_km": 483.94869807952546,
      "perigee_km": 482.21047746917884,
      "latitude_deg": -3.2859653222270374e-05,
      "longitude_deg": 130.86694645727317,
      "height_km": 482.8478086134419,
      "semi_major_axis_km": 6861.216587774352,
      "eccentricity": 0.00012667,
      "inclination_deg": 43.0022,
      "raan_deg": 326.2291,
      "arg_perigee_deg": 270.5683,
      "mean_anomaly_deg": 89.5023,
      "mean_motion_rev_day": 15.27569817
    }
  ]
}